CAS-2T & KS-1Q          
1 41847U 16066G   21153.44719145  .00000081  00000-0  23492-4 0  9993
2 41847  98.6019 212.5132 0364044 265.1829  90.7708 14.38191201239723
NAYIF-1 (EO-88)         
1 42017U 17008BX  21153.43499699  .00002297  00000-0  86436-4 0  9996
2 42017  97.3160 221.3037 0006891 148.4736 211.6918 15.28120597238963
ZHUHAI-1 02 (CAS-4B)    
1 42759U 17034B   21153.54166183  .00000394  00000-0  37040-4 0  9992
2 42759  43.0176 263.0608 0007892  64.0404   2.2399 15.10215257218891
ZHUHAI-1 01 (CAS-4A)    
1 42761U 17034D   21153.59016111  .00000501  00000-0  43365-4 0  9992
2 42761  43.0182 261.8628 0007978  67.8803 306.8344 15.10301893218905
MAX VALIER SAT          
1 42778U 17036P   21153.39532312  .00001333  00000-0  58528-4 0  9997
2 42778  97.2559 202.4995 0010603 222.7466 137.2948 15.23574454218990
RADFXSAT (FOX-1B)       
1 43017U 17073E   21153.45516646  .00001021  00000-0  83943-4 0  9997
2 43017  97.7081  58.0345 0254847 349.6962   9.9081 14.79541473190904
FOX-1D (AO-92)          
1 43137U 18004AC  21153.44036734  .00001440  00000-0  60208-4 0  9993
2 43137  97.4070 227.6249 0007121 262.5311  97.5118 15.25219560188374
DIWATA-2B               
1 43678U 18084H   21153.62965868 -.00000132  00000-0 -72929-5 0  9993
2 43678  97.9219 278.8341 0011374  98.1068 262.1463 14.91747251141223
ES'HAIL 2               
1 43700U 18090A   21153.49117582  .00000137  00000-0  00000-0 0  9992
2 43700   0.0146 305.2311 0001370 149.7531 358.8294  1.00274632  9220
FOX-1CLIFF (AO-95)      
1 43770U 18099N   21153.46061155  .00000505  00000-0  50852-4 0  9992
2 43770  97.6651 223.9785 0016040 106.9176 253.3805 14.95313301136213
ITASAT 1                
1 43786U 18099AE  21153.44967240  .00000037  00000-0  84406-5 0  9990
2 43786  97.6671 224.6354 0016619 100.4753 259.8341 14.95609384136242
JY1SAT (JO-97)          
1 43803U 18099AX  21153.41601201  .00000882  00000-0  83811-4 0  9995
2 43803  97.6636 224.3559 0016825 100.4711 259.8407 14.95856483136247
UWE-4                   
1 43880U 18111E   21153.47654153  .00000545  00000-0  52555-4 0  9992
2 43880  97.6875  61.4642 0012954 148.5789 211.6209 14.96856049132844
PSAT2 (NO-104)          
1 44354U 19036R   21153.53381967  .00010583  00000-0  13768-3 0  9998
2 44354  28.5258 226.4848 0327300 114.2884 249.2252 15.13150584106713
BRICSAT2 (NO-103)       
1 44355U 19036S   21153.46001067  .00027208  00000-0  30029-3 0  9992
2 44355  28.5237 184.3267 0266753 182.9708 176.9300 15.28737016107133
JAISAT-1                
1 44419U 19038F   21153.43460518  .00001351  00000-0  78368-4 0  9992
2 44419  97.5873 118.1924 0021380   8.9688 351.1921 15.13733638105527
DUCHIFAT-3              
1 44854U 19089C   21153.47778680  .00000402  00000-0  38541-4 0  9992
2 44854  36.9646 189.1972 0008574  10.1973 349.8930 14.99488564 80858
RS-44 & BREEZE-KM R/B   
1 44909U 19096E   21153.38202791  .00000037  00000-0  96446-4 0  9998
2 44909  82.5190 122.8262 0218252 128.1372 233.9623 12.79710009 66893
ORBITAL FACTORY 2 (OF-2)
1 45113U 19071C   21153.56869163  .00002413  00000-0  79360-4 0  9997
2 45113  51.6418 109.6764 0011227 238.9459 121.0422 15.35680409 74887
HUSKYSAT-1 (HO-107)     
1 45119U 19071J   21153.32008195  .00001903  00000-0  64870-4 0  9990
2 45119  51.6415 110.2620 0010654 234.3116 125.6876 15.35712952 74840
BY70-2                  
1 45857U 20042B   21153.47013764  .00001523  00000-0  22331-3 0  9996
2 45857  97.9834 229.3735 0009185 259.1202 100.8975 14.76995330 49332
SALSAT                  
1 46495U 20068K   21153.55272388  .00000346  00000-0  29882-4 0  9992
2 46495  97.6946  91.1371 0018701 120.1709 240.1371 15.03458135 37092
BY70-3                  
1 46839U 20079N   21153.57469953  .00002640  00000-0  83632-4 0  9996
2 46839  97.2403 227.7250 0005200 256.4591 212.3189 15.33594239 31926
RADFXSAT-2 (AO-109)     
1 47311U 21002C   21153.11338373  .00000853  00000-0  49095-4 0  9999
2 47311  60.6858 348.6224 0034350  39.8220 320.5377 15.21617537 20534
UVSQ-SAT                
1 47438U 21006AB  21153.43617897  .00001015  00000-0  60906-4 0  9994
2 47438  97.4880 214.9284 0013763 144.3529 215.8624 15.13110284 19781
DIY-1 (ARDUIQUBE)       
1 47963U 21022AH  21153.49055289  .00002131  00000-0  14520-3 0  9992
2 47963  97.5590  56.0884 0020003   1.2545 358.8729 15.07183437  9649
